LEMUR-2-WILSON          
1 62694U 25009CP  26015.80480532  .00001125  00000+0  11000-3 0  9990
2 62694  97.7169  96.9539 0003503 166.2430 193.8886 14.94287393 54598
CONNECTA IOT-8          
1 62695U 25009CQ  26015.69274576  .00000958  00000+0  99049-4 0  9990
2 62695  97.7222  96.5629 0003595 134.0746 226.0770 14.92373351 54543
LEMUR-2-STAR-FOX        
1 62696U 25009CR  26015.78994858  .00005046  00000+0  41444-3 0  9991
2 62696  97.7241  98.6765 0002825 107.9263 252.2269 14.99626986 54699
IRIDE-MS2-HEO-1         
1 62697U 25009CS  26015.93201129  .00001138  00000+0  11299-3 0  9994
2 62697  97.7188  97.0473 0003215 133.3717 226.7771 14.93670231 54601
ICEYE-X42               
1 62698U 25009CT  26015.68398813  .00001479  00000+0  15196-3 0  9992
2 62698  97.7417  96.7474 0000565  31.8485 328.2768 14.91840771 54557
LEMUR-2-ARIANNA         
1 62699U 25009CU  26015.78770795  .00004708  00000+0  38525-3 0  9996
2 62699  97.7220  98.5463 0000689 134.5215 225.6065 14.99804476 54692
ICEYE-X41               
1 62700U 25009CV  26015.79217657  .00001553  00000+0  14509-3 0  9994
2 62700  97.7213  97.5875 0002147 138.7726 221.3657 14.95577732 54628
FIREFLY-1               
1 62701U 25009CW  26015.93628486  .00000880  00000+0  90494-4 0  9997
2 62701  97.7212  97.1299 0004643  94.1105 266.0645 14.92808684 54604
NORSAT 4                
1 62702U 25009CX  26015.74842357  .00001366  00000+0  13240-3 0  9995
2 62702  97.7188  97.1152 0002081 148.3462 211.7884 14.94298705 54596
CONNECTA IOT-5          
1 62703U 25009CY  26015.75150349  .00000854  00000+0  84786-4 0  9995
2 62703  97.7161  97.1362 0002145 173.3582 186.7667 14.94295619 54606
FIREFLY-2               
1 62704U 25009CZ  26015.91358607  .00001128  00000+0  11438-3 0  9999
2 62704  97.7170  96.9751 0004229 220.2612 139.8295 14.92819505 54607
ICEYE-X45               
1 62705U 25009DA  26015.78790175  .00003294  00000+0  26385-3 0  9998
2 62705  97.7996 101.6740 0001155  58.2607 301.8729 15.00854295 54826
LEMUR-2-ALISIA          
1 62706U 25009DB  26015.72726535  .00003664  00000+0  29880-3 0  9996
2 62706  97.7283  99.0856 0001918   8.0330 352.0924 15.00077016 77285
ICEYE-X44               
1 62707U 25009DC  26015.80335967  .00001319  00000+0  12610-3 0  9999
2 62707  97.7198  97.3802 0000251 278.7016  81.4176 14.94911824 77164
CENTAURI-7              
1 62708U 25009DD  26015.75215289  .00002200  00000+0  19878-3 0  9991
2 62708  97.7218  98.0213 0001278  63.3519 296.7833 14.96491187 54655
CONNECTA IOT-6          
1 62709U 25009DE  26015.76074110  .00001062  00000+0  10542-3 0  9993
2 62709  97.7167  96.9913 0000289 339.6727  20.4481 14.93786105 54604
FIREFLY-3               
1 62710U 25009DF  26015.95896686  .00001227  00000+0  12402-3 0  9996
2 62710  97.7202  97.2048 0005044 330.4551  29.6382 14.92820244 54622
LEMUR-2-ROUNDTRIPPER    
1 62711U 25009DG  26015.78009821  .00006181  00000+0  49151-3 0  9990
2 62711  97.7258  98.9646 0003345 331.8434  28.2608 15.00784224 54749
LEMUR-2-MYNAMEISJEFF    
1 62712U 25009DH  26015.71190737  .00005534  00000+0  44080-3 0  9998
2 62712  97.7314  99.1813 0004306   6.2175 353.9102 15.00763038 54731
SATGUS                  
1 62713U 25009DJ  26015.78454884  .00003968  00000+0  33343-3 0  9991
2 62713  97.7208  98.5646 0000586 326.9924  33.1262 14.98870405 54716
CENTAURI-8              
1 62714U 25009DK  26015.78600988  .00002417  00000+0  21703-3 0  9995
2 62714  97.7195  97.9568 0000793   4.2041 355.9187 14.96645878 54672
CONNECTA IOT-7          
1 62715U 25009DL  26015.73393789  .00000415  00000+0  44401-4 0  9996
2 62715  97.7220  97.2592 0001578  38.4547 321.6785 14.93782139 54587
PRSC-EO1                
1 62725U 25012A   26015.95515448  .00004804  00000+0  24108-3 0  9990
2 62725  97.4412  91.2639 0007826  77.8913 282.3197 15.17758785 55106
2025-012B               
1 62726U 25012B   26015.77732860  .00003062  00000+0  14735-3 0  9990
2 62726  97.4415  91.0543 0010711  89.8729 270.3734 15.19478641 55091
2025-012C               
1 62727U 25012C   26015.94220894  .00006544  00000+0  27406-3 0  9996
2 62727  97.4431  92.3828 0009035  83.7277 276.4989 15.23845047 55179
2025-013A               
1 62729U 25013A   26015.97923934  .00017913  00000+0  70851-3 0  9991
2 62729  97.6312 190.2758 0010382 109.1709 251.0654 15.25478888 54670
2025-013B               
1 62730U 25013B   26015.93594735  .00003089  00000+0  19393-3 0  9995
2 62730  97.6392 185.4011 0013843 166.6405 193.5194 15.09965667 54345
2025-013C               
1 62731U 25013C   26015.98546711  .00002504  00000+0  15802-3 0  9994
2 62731  97.6343 185.2605 0014624 169.7343 190.4188 15.09948275 54358
2025-013D               
1 62732U 25013D   26015.94558970  .00003278  00000+0  20576-3 0  9994
2 62732  97.6375 185.4676 0008528 184.7743 175.3407 15.09980536 54296
2025-013E               
1 62733U 25013E   26015.98865461  .00002553  00000+0  16211-3 0  9991
2 62733  97.6393 185.4812 0008776 171.1755 188.9630 15.09752825 54248
STARLINK-32806          
1 62735U 25014A   26015.25813577  .00019609  00000+0  71963-3 0  9990
2 62735  43.0007  96.3306 0001676 279.7642  80.3021 15.27605674 55088
STARLINK-32329          
1 62736U 25014B   26015.56578706  .00019481  00000+0  71494-3 0  9994
2 62736  42.9993  94.3271 0001940 272.5272  87.5358 15.27609273 55131
STARLINK-32774          
1 62737U 25014C   26015.61912683  .00017170  00000+0  63141-3 0  9990
2 62737  43.0055  97.3377 0002716 292.7353  67.3212 15.27609794 55109
STARLINK-32802          
1 62738U 25014D   26015.61061280  .00013682  00000+0  50542-3 0  9994
2 62738  43.0019  93.8030 0001179 290.9482  69.1243 15.27604011 55147
STARLINK-32796          
1 62739U 25014E   26015.60804445  .00014841  00000+0  54733-3 0  9996
2 62739  43.0029  93.7860 0001726 270.2604  89.8050 15.27605429 55143
STARLINK-32805          
1 62740U 25014F   26015.27355436  .00011279  00000+0  41853-3 0  9993
2 62740  43.0030  96.4422 0001526 268.7909  91.2768 15.27599456 55087
STARLINK-32770          
1 62741U 25014G   26015.62088875 -.00007422  00000+0 -26041-3 0  9992
2 62741  43.0009  93.8867 0001452 272.9504  87.1181 15.27584054 55142
STARLINK-32775          
1 62742U 25014H   26015.30552984  .00011107  00000+0  41229-3 0  9993
2 62742  42.9993  95.8170 0001651 266.3410  93.7252 15.27600667 55091
STARLINK-32800          
1 62743U 25014J   26015.60336710  .00006616  00000+0  24960-3 0  9996
2 62743  43.0010 101.5364 0001124 284.8551  75.2176 15.27594454 55052
STARLINK-32758          
1 62744U 25014K   26015.30504387  .00014054  00000+0  51942-3 0  9996
2 62744  43.0002  99.2767 0001577 254.3870 105.6808 15.27569133 55058
STARLINK-32746          
1 62745U 25014L   26015.21184762  .00013269  00000+0  49003-3 0  9990
2 62745  43.0012  95.9677 0001882 243.0593 117.0066 15.27634856 55080
STARLINK-32780          
1 62746U 25014M   26015.27226741  .00012600  00000+0  46633-3 0  9995
2 62746  42.9999  96.4258 0000806 289.3036  70.7728 15.27599834 55080
STARLINK-32765          
1 62747U 25014N   26015.25042447  .00011797  00000+0  43725-3 0  9998
2 62747  42.9977  96.2627 0000768 236.4072 123.6707 15.27600181 55088
STARLINK-32762          
1 62748U 25014P   26015.62169150  .00018866  00000+0  69279-3 0  9997
2 62748  43.0038  97.3529 0001694 285.1704  74.8960 15.27605490 55103
STARLINK-32761          
1 62749U 25014Q   26015.23195028  .00015272  00000+0  56291-3 0  9996
2 62749  43.0009  99.5856 0001649 261.9243  98.1421 15.27605276 55045
STARLINK-32763          
1 62750U 25014R   26015.29139585  .00012996  00000+0  48067-3 0  9992
2 62750  43.0001  95.7067 0001658 268.7610  91.3052 15.27598396 55098
STARLINK-32759          
1 62751U 25014S   26015.59100297  .00013635  00000+0  50368-3 0  9992
2 62751  43.0020  97.9873 0001877 278.1186  81.9452 15.27607066 55099
STARLINK-32756          
1 62752U 25014T   26015.60176810  .00012331  00000+0  45659-3 0  9998
2 62752  43.0027  94.5977 0001624 264.5595  95.5072 15.27600596 55133
STARLINK-32751          
1 62753U 25014U   26015.20302993  .00015038  00000+0  55459-3 0  9994
2 62753  42.9994  96.7659 0000769 219.4238 140.6558 15.27596330 55072
STARLINK-32740          
1 62754U 25014V   26015.27983071  .00007856  00000+0  29456-3 0  9991
2 62754  43.0015  95.6241 0001580 253.2025 106.8654 15.27595176 55096
STARLINK-32745          
1 62755U 25014W   26015.25684890  .00014148  00000+0  52237-3 0  9992
2 62755  42.9997  96.3102 0001188 226.9934 133.0818 15.27598677 55080
USA 485                 
1 62756U 25014X   26015.89373675  .00225549  00000+0  14302-2 0  9998
2 62756  42.9994 316.2085 0002437 275.8499  84.2092 15.75074747 56733
USA 486                 
1 62757U 25014Y   26015.25831165  .00188949  00000+0  12023-2 0  9992
2 62757  43.0005 320.0491 0001317 273.0986  86.9733 15.75105206 56646
STARLINK-33596          
1 62758U 25015A   26015.76129144  .00011752  00000+0  40812-3 0  9992
2 62758  53.1557 208.5794 0001234 125.1187 234.9930 15.30211798 56307
STARLINK-33589          
1 62759U 25015B   26015.75917876  .00010459  00000+0  36465-3 0  9991
2 62759  53.1560 208.5691 0001227 114.9206 245.1922 15.30208140 55613
STARLINK-33575          
1 62760U 25015C   26015.74230856  .00022536  00000+0  77016-3 0  9994
2 62760  53.1583 208.4313 0001411  75.7294 284.3863 15.30223100 55618
STARLINK-33584          
1 62761U 25015D   26015.92451653  .00023660  00000+0  80737-3 0  9998
2 62761  53.1590 207.4685 0000821 104.4806 255.6286 15.30241456 56403
STARLINK-33577          
1 62762U 25015E   26015.90448193  .00013435  00000+0  46462-3 0  9998
2 62762  53.1580 207.3431 0001135  69.7335 290.3788 15.30221217 56406
STARLINK-33597          
1 62763U 25015F   26015.76444272  .00003695  00000+0  13675-3 0  9994
2 62763  53.1574 208.5997 0002273  99.1729 260.9529 15.30218188 56373
